2026-023D               
1 67677U 26023D   26046.96875617  .00012507  00000+0  54127-3 0  9999
2 67677  96.6471 122.4323 0019029 202.9072 157.1320 15.22375795  1543
2026-023E               
1 67678U 26023E   26046.96819065  .00014646  00000+0  63130-3 0  9995
2 67678  96.6365 122.4349 0018874 202.2686 157.7735 15.22481759  1549
2026-023F               
1 67679U 26023F   26046.96725253  .00013048  00000+0  56013-3 0  9998
2 67679  96.6372 124.9316 0020816 197.0055 163.0489 15.22607001  1534
2026-023G               
1 67680U 26023G   26046.96749760  .00015318  00000+0  65685-3 0  9996
2 67680  96.6299 124.9300 0022428 193.4491 166.6153 15.22580414  1537
2026-023H               
1 67681U 26023H   26046.83586314  .00001038  00000+0  46915-4 0  9997
2 67681  96.6442 124.8124 0022456 193.4246 166.6398 15.22579253  1518
2026-023J               
1 67682U 26023J   26046.96706854  .00013673  00000+0  58551-3 0  9991
2 67682  96.6401 124.9429 0022604 189.6328 170.4480 15.22645697  1539
ISS OBJECT XZ           
1 67683U 98067XZ  26046.56141887  .00041718  00000+0  73306-3 0  9990
2 67683  51.6309 181.6425 0010523 114.1379 246.0711 15.50024026  1355
GXIBA-1                 
1 67684U 98067YA  26046.62188020  .00079760  00000+0  13427-2 0  9993
2 67684  51.6308 181.2974 0012194 107.9259 252.3061 15.50928895  1369
CORAL                   
1 67685U 98067YB  26046.88295855  .00045696  00000+0  79589-3 0  9990
2 67685  51.6310 180.0402 0012423 110.6122 249.6200 15.50209257  1404
ISS OBJECT YC           
1 67686U 98067YC  26046.62439076  .00056075  00000+0  97002-3 0  9991
2 67686  51.6313 181.3144 0007784  83.9210 276.2666 15.50363594  1361
LEOPARD                 
1 67687U 98067YD  26046.56095633  .00044466  00000+0  77880-3 0  9995
2 67687  51.6313 181.6402 0007861  86.0816 274.1071 15.50114031  1271
ISS OBJECT YE           
1 67688U 98067YE  26046.62464706  .00052367  00000+0  90932-3 0  9996
2 67688  51.6316 181.3167 0007758  84.5010 275.6864 15.50286221  1282
